ONEWEB-0710             
1 55173U 23004AK  24051.83185180  .00000004  00000+0 -22058-4 0  9991
2 55173  87.9251 174.4311 0001450 109.1112 251.0177 13.17648386 55999
ONEWEB-0711             
1 55174U 23004AL  24051.89989763  .00000434  00000+0  11873-2 0  9994
2 55174  87.9010 189.5104 0001922 135.7163 224.4119 13.11421046 54787
ONEWEB-0713             
1 55175U 23004AM  24051.91775496  .00000259  00000+0  69521-3 0  9993
2 55175  87.9009 189.5148 0001772 118.7287 241.4019 13.11415191 54776
ONEWEB-0715             
1 55176U 23004AN  24052.44696477  .00000556  00000+0  15325-2 0  9996
2 55176  87.9010 189.4104 0001818 112.0555 248.0766 13.11416718 54897
ONEWEB-0716             
1 55177U 23004AP  24051.90146640 -.00000016  00000+0 -75151-4 0  9997
2 55177  87.9258 174.4065 0001910  99.7963 260.3384 13.17648611 56002
ONEWEB-0717             
1 55178U 23004AQ  24052.41561730  .00000044  00000+0  80825-4 0  9999
2 55178  87.9256 174.2713 0001578 143.5275 216.5964 13.17649396 56124
ONEWEB-0719             
1 55179U 23004AR  24052.42668426  .00000111  00000+0  25238-3 0  9992
2 55179  87.9256 174.2561 0002052 110.0963 250.0389 13.17648762 56071
ONEWEB-0530             
1 55796U 23029A   24052.50831991  .00000095  00000+0  20266-3 0  9999
2 55796  87.9133  82.9892 0002008 112.9927 247.1418 13.20771116 50094
